[{"OBJECT_NAME":"STARLINK-34030","OBJECT_ID":"2025-102J","EPOCH":"2026-03-09T12:34:44.374944","MEAN_MOTION":14.98340563,"ECCENTRICITY":0.00027985,"INCLINATION":70.0016,"RA_OF_ASC_NODE":115.0253,"ARG_OF_PERICENTER":258.7362,"MEAN_ANOMALY":101.3483,"EPHEMERIS_TYPE":0,"CLASSIFICATION_TYPE":"U","NORAD_CAT_ID":64030,"ELEMENT_SET_NO":999,"REV_AT_EPOCH":4593,"BSTAR":0.00033280714,"MEAN_MOTION_DOT":3.881e-5,"MEAN_MOTION_DDOT":0},{"OBJECT_NAME":"ICEYE-X57","OBJECT_ID":"2025-135BC","EPOCH":"2026-03-09T22:18:00.647424","MEAN_MOTION":15.00870088,"ECCENTRICITY":0.00021914,"INCLINATION":97.7623,"RA_OF_ASC_NODE":185.2979,"ARG_OF_PERICENTER":76.2741,"MEAN_ANOMALY":283.8727,"EPHEMERIS_TYPE":0,"CLASSIFICATION_TYPE":"U","NORAD_CAT_ID":64578,"ELEMENT_SET_NO":999,"REV_AT_EPOCH":3913,"BSTAR":0.00060837081,"MEAN_MOTION_DOT":7.683e-5,"MEAN_MOTION_DDOT":0}]
